GAOFEN-11 01            
1 43585U 18063A   26184.70615434  .00016023  00000+0  23363-3 0  9995
2 43585  97.1280 251.5435 0002095 263.5070  96.5947 15.55771160442916
ICESAT-2                
1 43613U 18070A   26183.80448268  .00010031  00000+0  36532-3 0  9999
2 43613  92.0095 295.1986 0006119  91.1082 269.0868 15.28160520434844
HYSIS                   
1 43719U 18096A   26184.65552663  .00000872  00000+0  12617-3 0  9993
2 43719  97.9834 251.2742 0001869  88.5633 271.5792 14.78649888409858
KAZSTSAT                
1 43783U 18099AB  26183.57498709  .00002131  00000+0  17615-3 0  9990
2 43783  97.4302 214.8068 0008299  26.1477 334.0165 14.99922730413619
SAUDISAT 5A             
1 43831U 18102A   26184.60075510  .00006142  00000+0  22565-3 0  9991
2 43831  97.3055 245.8663 0011190  79.5341 280.7159 15.28220168418184
SAUDISAT 5B             
1 43833U 18102C   26184.68235370  .00005952  00000+0  21706-3 0  9997
2 43833  97.3164 249.0460 0011920  80.9742 279.2846 15.28469608418315
GAOFEN-10R              
1 44622U 19066A   26184.68400815  .00001351  00000+0  17274-3 0  9996
2 44622  98.0504 138.3835 0007194  82.6315 277.5716 14.83037332364825
CARTOSAT-3              
1 44804U 19081A   26184.68911274  .00004409  00000+0  21190-3 0  9990
2 44804  97.4296 246.2903 0013501  96.4701 263.8071 15.19257851365973
GAOFEN-12 01            
1 44819U 19082A   26184.63868358  .00000517  00000+0  74194-4 0  9995
2 44819  97.8103 190.5839 0001592  54.4776 305.6585 14.80472822356522
CSG-1                   
1 44873U 19092A   26184.45638677  .00000537  00000+0  74034-4 0  9990
2 44873  97.8892   7.8235 0001424  91.1235 269.0142 14.82158959353881
NEMO-HD                 
1 46277U 20061F   26184.51855985  .00015279  00000+0  32642-3 0  9995
2 46277  97.1907 246.3092 0001406  73.3282 286.8122 15.44933522324504
SENTINEL-6A             
1 46984U 20086A   26183.85682286 -.00000046  00000+0  67278-4 0  9996
2 46984  66.0413 102.5074 0007833 269.9913  90.0205 12.80929977262338
CAS500-1                
1 47932U 21022A   26184.71665455  .00007522  00000+0  35057-3 0  9990
2 47932  97.3879  79.6340 0003684 216.6189 143.4795 15.20162671293270
GAOFEN-12 02            
1 48079U 21026A   26184.65151130  .00000484  00000+0  70456-4 0  9993
2 48079  97.9927 182.7651 0004995 164.2406 195.8963 14.80309580284196
PLEIADES NEO 3          
1 48268U 21034A   26184.52847414 -.00000083  00000+0 -38783-5 0  9990
2 48268  97.8940 259.0602 0001373  88.0288 272.1082 14.81673283280071
PLEIADES NEO 4          
1 49070U 21073E   26184.49469955  .00000550  00000+0  76520-4 0  9998
2 49070  97.8935 259.0231 0001334  88.9745 271.1620 14.81667489263786
LANDSAT 9               
1 49260U 21088A   26183.64726542  .00000415  00000+0  10221-3 0  9994
2 49260  98.2275 253.6373 0001187  87.7642 272.3692 14.57108136253250
CSG-2                   
1 51444U 22008A   26184.62515762  .00000418  00000+0  59058-4 0  9998
2 51444  97.8884   7.9840 0001584  85.1461 274.9933 14.82156775239024
GAOFEN-12 03            
1 52912U 22069A   26184.68430154  .00000312  00000+0  47934-4 0  9996
2 52912  97.8259  72.1376 0002454  84.0213 276.1279 14.80058932217059
SWOT                    
1 54754U 22173A   26183.85109700  .00000106  00000+0  73878-4 0  9993
2 54754  77.6102  14.1633 0000321  86.6096 273.5092 14.00171427181341
GAOFEN-12 04            
1 57654U 23123A   26184.70167628  .00001156  00000+0  16059-3 0  9992
2 57654  97.9111 102.4757 0003910  73.4402 286.7239 14.79758347155076
PARS 1                  
1 59065U 24039Q   26184.69116683  .00012057  00000+0  24782-3 0  9994
2 59065  97.4834 166.1348 0011013  63.1094 297.1279 15.46076678131192
RESURS-P 4              
1 59371U 24061A   26184.65571854  .00003631  00000+0  11916-3 0  9993
2 59371  97.2759 132.2687 0003089 106.4760 253.6822 15.32227301126282
LEGION 1                
1 59625U 24081A   26183.79681513  .00004273  00000+0  22093-3 0  9996
2 59625  97.5014 261.4878 0008077 320.9958  39.0692 15.16774418119902
LEGION 2                
1 59626U 24081B   26183.82702063  .00005054  00000+0  26073-3 0  9995
2 59626  97.5014 261.6149 0009859 282.7640  77.2491 15.16752900119912
ALOS-4 (DAICHI-4)       
1 60182U 24123A   26183.84934411  .00001648  00000+0  22752-3 0  9992
2 60182  97.9220 280.8007 0001610  97.4056 262.7339 14.79475621108199
LEGION 3                
1 60452U 24146A   26183.81351492  .00005488  00000+0  29748-3 0  9994
2 60452  45.0023 306.7512 0008831 270.5308  89.4558 15.15587212104395
LEGION 4                
1 60453U 24146B   26183.81602347  .00005270  00000+0  28151-3 0  9999
2 60453  45.0024  38.6394 0011888  35.3490 324.8175 15.16159778103248
SENTINEL-2C             
1 60989U 24157A   26183.83686621  .00000132  00000+0  67057-4 0  9995
2 60989  98.5686 258.3973 0000945  92.0582 268.0709 14.30812725 95220
IONOSFERA-M 1           
1 61735U 24199A   26183.87645906  .00000084  00000+0  57243-4 0  9998
2 61735  98.7152  56.8816 0002212  89.5438 270.5993 14.22757310129935
