OBJECT_NAME,OBJECT_ID,EPOCH,MEAN_MOTION,ECCENTRICITY,INCLINATION,RA_OF_ASC_NODE,ARG_OF_PERICENTER,MEAN_ANOMALY,EPHEMERIS_TYPE,CLASSIFICATION_TYPE,NORAD_CAT_ID,ELEMENT_SET_NO,REV_AT_EPOCH,BSTAR,MEAN_MOTION_DOT,MEAN_MOTION_DDOT
GAOFEN-11 01,2018-063A,2026-07-03T16:56:51.734976,15.55771160,.00020959,97.1280,251.5435,263.5070,96.5947,0,U,43585,999,44291,.23362984E-3,.16023E-3,0
ICESAT-2,2018-070A,2026-07-02T19:18:27.303552,15.28160520,.00061191,92.0095,295.1986,91.1082,269.0868,0,U,43613,999,43484,.36532148E-3,.10031E-3,0
HYSIS,2018-096A,2026-07-03T15:43:57.500832,14.78649888,.00018697,97.9834,251.2742,88.5633,271.5792,0,U,43719,999,40985,.12616709E-3,.872E-5,0
KAZSTSAT,2018-099AB,2026-07-02T13:47:58.884576,14.99922730,.0008299,97.4302,214.8068,26.1477,334.0165,0,U,43783,999,41361,.17615E-3,.2131E-4,0
SAUDISAT 5A,2018-102A,2026-07-03T14:25:05.240640,15.28220168,.00111906,97.3055,245.8663,79.5341,280.7159,0,U,43831,999,41818,.22564877E-3,.6142E-4,0
SAUDISAT 5B,2018-102C,2026-07-03T16:22:35.359680,15.28469608,.00119201,97.3164,249.0460,80.9742,279.2846,0,U,43833,999,41831,.21706034E-3,.5952E-4,0
GAOFEN-10R,2019-066A,2026-07-03T16:24:58.304160,14.83037332,.00071944,98.0504,138.3835,82.6315,277.5716,0,U,44622,999,36482,.17274435E-3,.1351E-4,0
CARTOSAT-3,2019-081A,2026-07-03T16:32:19.340736,15.19257851,.00135016,97.4296,246.2903,96.4701,263.8071,0,U,44804,999,36597,.21189699E-3,.4409E-4,0
GAOFEN-12 01,2019-082A,2026-07-03T15:19:42.261312,14.80472822,.00015922,97.8103,190.5839,54.4776,305.6585,0,U,44819,999,35652,.74194476E-4,.517E-5,0
CSG-1,2019-092A,2026-07-03T10:57:11.816928,14.82158959,.00014246,97.8892,7.8235,91.1235,269.0142,0,U,44873,999,35388,.74034059E-4,.537E-5,0
NEMO-HD,2020-061F,2026-07-03T12:26:43.571040,15.44933522,.00014063,97.1907,246.3092,73.3282,286.8122,0,U,46277,999,32450,.32642068E-3,.15279E-3,0
SENTINEL-6A,2020-086A,2026-07-02T20:33:49.495104,12.80929977,.00078337,66.0413,102.5074,269.9913,90.0205,0,U,46984,999,26233,.67277594E-4,-.46E-6,0
CAS500-1,2021-022A,2026-07-03T17:11:58.953120,15.20162671,.00036846,97.3879,79.6340,216.6189,143.4795,0,U,47932,999,29327,.35057496E-3,.7522E-4,0
GAOFEN-12 02,2021-026A,2026-07-03T15:38:10.576320,14.80309580,.00049952,97.9927,182.7651,164.2406,195.8963,0,U,48079,999,28419,.70456282E-4,.484E-5,0
PLEIADES NEO 3,2021-034A,2026-07-03T12:41:00.165696,14.81673283,.00013732,97.8940,259.0602,88.0288,272.1082,0,U,48268,999,28007,-.3878296E-5,-.83E-6,0
PLEIADES NEO 4,2021-073E,2026-07-03T11:52:22.041120,14.81667489,.00013341,97.8935,259.0231,88.9745,271.1620,0,U,49070,999,26378,.76520154E-4,.55E-5,0
LANDSAT 9,2021-088A,2026-07-02T15:32:03.732288,14.57108136,.00011871,98.2275,253.6373,87.7642,272.3692,0,U,49260,999,25325,.10221453E-3,.415E-5,0
CSG-2,2022-008A,2026-07-03T15:00:13.618368,14.82156775,.00015845,97.8884,7.9840,85.1461,274.9933,0,U,51444,999,23902,.59058034E-4,.418E-5,0
GAOFEN-12 03,2022-069A,2026-07-03T16:25:23.653056,14.80058932,.00024548,97.8259,72.1376,84.0213,276.1279,0,U,52912,999,21705,.47933945E-4,.312E-5,0
SWOT,2022-173A,2026-07-02T20:25:34.780800,14.00171427,.00003211,77.6102,14.1633,86.6096,273.5092,0,U,54754,999,18134,.73878017E-4,.106E-5,0
GAOFEN-12 04,2023-123A,2026-07-03T16:50:24.830592,14.79758347,.00039105,97.9111,102.4757,73.4402,286.7239,0,U,57654,999,15507,.16059228E-3,.1156E-4,0
PARS 1,2024-039Q,2026-07-03T16:35:16.814112,15.46076678,.00110136,97.4834,166.1348,63.1094,297.1279,0,U,59065,999,13119,.24781867E-3,.12057E-3,0
RESURS-P 4,2024-061A,2026-07-03T15:44:14.081856,15.32227301,.00030899,97.2759,132.2687,106.4760,253.6822,0,U,59371,999,12628,.11916349E-3,.3631E-4,0
LEGION 1,2024-081A,2026-07-02T19:07:24.827232,15.16774418,.00080774,97.5014,261.4878,320.9958,39.0692,0,U,59625,999,11990,.22092805E-3,.4273E-4,0
LEGION 2,2024-081B,2026-07-02T19:50:54.582432,15.16752900,.00098593,97.5014,261.6149,282.7640,77.2491,0,U,59626,999,11991,.26073321E-3,.5054E-4,0
ALOS-4 (DAICHI-4),2024-123A,2026-07-02T20:23:03.331104,14.79475621,.00016106,97.9220,280.8007,97.4056,262.7339,0,U,60182,999,10819,.22752435E-3,.1648E-4,0
LEGION 3,2024-146A,2026-07-02T19:31:27.689088,15.15587212,.00088315,45.0023,306.7512,270.5308,89.4558,0,U,60452,999,10439,.29748093E-3,.5488E-4,0
LEGION 4,2024-146B,2026-07-02T19:35:04.427808,15.16159778,.00118884,45.0024,38.6394,35.3490,324.8175,0,U,60453,999,10324,.28151464E-3,.527E-4,0
SENTINEL-2C,2024-157A,2026-07-02T20:05:05.240544,14.30812725,.00009453,98.5686,258.3973,92.0582,268.0709,0,U,60989,999,9522,.67057087E-4,.132E-5,0
IONOSFERA-M 1,2024-199A,2026-07-02T21:02:06.062784,14.22757310,.00022127,98.7152,56.8816,89.5438,270.5993,0,U,61735,999,12993,.57243018E-4,.84E-6,0
